{
  "type": "FeatureCollection",
  "features": [
    {
      "type": "Feature",
      "properties": {
        "norad_id": 43262,
        "name": "GAOFEN-1 04",
        "group": "resource",
        "lat": -7.350260425267623,
        "lon": -126.26319080769429,
        "alt_km": 644.8596261259536,
        "timestamp": "2025-12-22T22:44:20.608401+00:00",
        "meta_object_name": "GAOFEN-1 04",
        "meta_object_id": "2018-031D",
        "meta_epoch": "2025-12-22T13:45:38.647008",
        "meta_mean_motion": 14.76423981,
        "meta_eccentricity": 6.386e-05,
        "meta_inclination": 98.0796,
        "meta_ra_of_asc_node": 54.4126,
        "meta_arg_of_pericenter": 54.8072,
        "meta_mean_anomaly": 305.3197,
        "meta_ephemeris_type": 0,
        "meta_classification_type": "U",
        "meta_norad_cat_id": 43262,
        "meta_element_set_no": 999,
        "meta_rev_at_epoch": 41662,
        "meta_bstar": 9.5468863e-05,
        "meta_mean_motion_dot": 6.12e-06,
        "meta_mean_motion_ddot": 0,
        "tle_line1": "1 43262U 18031D   25356.57336397  .00000612  00000+0  95469-4 0  9999",
        "tle_line2": "2 43262  98.0796  54.4126 0000638  54.8072 305.3197 14.76423981416625"
      },
      "geometry": {
        "type": "Point",
        "coordinates": [
          -126.26319080769429,
          -7.350260425267623
        ]
      }
    },
    {
      "type": "Feature",
      "properties": {
        "norad_id": 43437,
        "name": "SENTINEL-3B",
        "group": "resource",
        "lat": -29.50059358362377,
        "lon": 66.91228654201988,
        "alt_km": 809.1018900676527,
        "timestamp": "2025-12-22T22:44:20.608411+00:00",
        "meta_object_name": "SENTINEL-3B",
        "meta_object_id": "2018-039A",
        "meta_epoch": "2025-12-22T02:40:53.006304",
        "meta_mean_motion": 14.26737543,
        "meta_eccentricity": 0.00016188,
        "meta_inclination": 98.6254,
        "meta_ra_of_asc_node": 61.1622,
        "meta_arg_of_pericenter": 92.471,
        "meta_mean_anomaly": 267.6656,
        "meta_ephemeris_type": 0,
        "meta_classification_type": "U",
        "meta_norad_cat_id": 43437,
        "meta_element_set_no": 999,
        "meta_rev_at_epoch": 39887,
        "meta_bstar": 7.7396733e-05,
        "meta_mean_motion_dot": 1.44e-06,
        "meta_mean_motion_ddot": 0,
        "tle_line1": "1 43437U 18039A   25356.11172461  .00000144  00000+0  77397-4 0  9991",
        "tle_line2": "2 43437  98.6254  61.1622 0001618  92.4710 267.6656 14.26737543398879"
      },
      "geometry": {
        "type": "Point",
        "coordinates": [
          66.91228654201988,
          -29.50059358362377
        ]
      }
    },
    {
      "type": "Feature",
      "properties": {
        "norad_id": 43461,
        "name": "GAOFEN-5 01",
        "group": "resource",
        "lat": 63.515515648220216,
        "lon": 157.41867244580013,
        "alt_km": 685.9274809123899,
        "timestamp": "2025-12-22T22:44:20.608422+00:00",
        "meta_object_name": "GAOFEN-5 01",
        "meta_object_id": "2018-043A",
        "meta_epoch": "2025-12-22T12:20:51.410688",
        "meta_mean_motion": 14.60419833,
        "meta_eccentricity": 5.083e-05,
        "meta_inclination": 98.4341,
        "meta_ra_of_asc_node": 319.653,
        "meta_arg_of_pericenter": 269.1622,
        "meta_mean_anomaly": 90.9519,
        "meta_ephemeris_type": 0,
        "meta_classification_type": "U",
        "meta_norad_cat_id": 43461,
        "meta_element_set_no": 999,
        "meta_rev_at_epoch": 40590,
        "meta_bstar": 9.4988125e-05,
        "meta_mean_motion_dot": 4.11e-06,
        "meta_mean_motion_ddot": 0,
        "tle_line1": "1 43461U 18043A   25356.51448392  .00000411  00000+0  94988-4 0  9998",
        "tle_line2": "2 43461  98.4341 319.6530 0000508 269.1622  90.9519 14.60419833405907"
      },
      "geometry": {
        "type": "Point",
        "coordinates": [
          157.41867244580013,
          63.515515648220216
        ]
      }
    },
    {
      "type": "Feature",
      "properties": {
        "norad_id": 43484,
        "name": "GAOFEN-6",
        "group": "resource",
        "lat": -16.985954053480246,
        "lon": 63.27174756833878,
        "alt_km": 639.3733555015378,
        "timestamp": "2025-12-22T22:44:20.608432+00:00",
        "meta_object_name": "GAOFEN-6",
        "meta_object_id": "2018-048A",
        "meta_epoch": "2025-12-22T19:33:49.220928",
        "meta_mean_motion": 14.76582753,
        "meta_eccentricity": 0.0012721,
        "meta_inclination": 97.8021,
        "meta_ra_of_asc_node": 60.7435,
        "meta_arg_of_pericenter": 33.8228,
        "meta_mean_anomaly": 326.3791,
        "meta_ephemeris_type": 0,
        "meta_classification_type": "U",
        "meta_norad_cat_id": 43484,
        "meta_element_set_no": 999,
        "meta_rev_at_epoch": 40736,
        "meta_bstar": 0.00012675,
        "meta_mean_motion_dot": 8.36e-06,
        "meta_mean_motion_ddot": 0,
        "tle_line1": "1 43484U 18048A   25356.81515302  .00000836  00000+0  12675-3 0  9990",
        "tle_line2": "2 43484  97.8021  60.7435 0012721  33.8228 326.3791 14.76582753407365"
      },
      "geometry": {
        "type": "Point",
        "coordinates": [
          63.27174756833878,
          -16.985954053480246
        ]
      }
    },
    {
      "type": "Feature",
      "properties": {
        "norad_id": 43585,
        "name": "GAOFEN-11 01",
        "group": "resource",
        "lat": -59.42445441967364,
        "lon": 72.07275300991918,
        "alt_km": 423.334818597762,
        "timestamp": "2025-12-22T22:44:20.608443+00:00",
        "meta_object_name": "GAOFEN-11 01",
        "meta_object_id": "2018-063A",
        "meta_epoch": "2025-12-22T19:53:54.813696",
        "meta_mean_motion": 15.49488559,
        "meta_eccentricity": 0.0003923,
        "meta_inclination": 97.1548,
        "meta_ra_of_asc_node": 59.6797,
        "meta_arg_of_pericenter": 260.8617,
        "meta_mean_anomaly": 99.2191,
        "meta_ephemeris_type": 0,
        "meta_classification_type": "U",
        "meta_norad_cat_id": 43585,
        "meta_element_set_no": 999,
        "meta_rev_at_epoch": 41298,
        "meta_bstar": 0.00024376,
        "meta_mean_motion_dot": 0.00013334,
        "meta_mean_motion_ddot": 0,
        "tle_line1": "1 43585U 18063A   25356.82910664  .00013334  00000+0  24376-3 0  9998",
        "tle_line2": "2 43585  97.1548  59.6797 0003923 260.8617  99.2191 15.49488559412984"
      },
      "geometry": {
        "type": "Point",
        "coordinates": [
          72.07275300991918,
          -59.42445441967364
        ]
      }
    },
    {
      "type": "Feature",
      "properties": {
        "norad_id": 43613,
        "name": "ICESAT-2",
        "group": "resource",
        "lat": -20.55886590565782,
        "lon": -115.75534740310337,
        "alt_km": 487.9404856658166,
        "timestamp": "2025-12-22T22:44:20.608453+00:00",
        "meta_object_name": "ICESAT-2",
        "meta_object_id": "2018-070A",
        "meta_epoch": "2025-12-22T11:49:42.696192",
        "meta_mean_motion": 15.28279321,
        "meta_eccentricity": 0.00030811,
        "meta_inclination": 92.0042,
        "meta_ra_of_asc_node": 243.3695,
        "meta_arg_of_pericenter": 120.0223,
        "meta_mean_anomaly": 240.1332,
        "meta_ephemeris_type": 0,
        "meta_classification_type": "U",
        "meta_norad_cat_id": 43613,
        "meta_element_set_no": 999,
        "meta_rev_at_epoch": 40547,
        "meta_bstar": 0.00051409572,
        "meta_mean_motion_dot": 0.00014166,
        "meta_mean_motion_ddot": 0,
        "tle_line1": "1 43613U 18070A   25356.49285528  .00014166  00000+0  51410-3 0  9998",
        "tle_line2": "2 43613  92.0042 243.3695 0003081 120.0223 240.1332 15.28279321405475"
      },
      "geometry": {
        "type": "Point",
        "coordinates": [
          -115.75534740310337,
          -20.55886590565782
        ]
      }
    },
    {
      "type": "Feature",
      "properties": {
        "norad_id": 43719,
        "name": "HYSIS",
        "group": "resource",
        "lat": 80.53334412892502,
        "lon": -62.5228549272254,
        "alt_km": 625.6416154704193,
        "timestamp": "2025-12-22T22:44:20.608462+00:00",
        "meta_object_name": "HYSIS",
        "meta_object_id": "2018-096A",
        "meta_epoch": "2025-12-22T19:03:45.935424",
        "meta_mean_motion": 14.78668791,
        "meta_eccentricity": 9.17e-05,
        "meta_inclination": 98.0087,
        "meta_ra_of_asc_node": 59.7226,
        "meta_arg_of_pericenter": 52.8265,
        "meta_mean_anomaly": 307.3029,
        "meta_ephemeris_type": 0,
        "meta_classification_type": "U",
        "meta_norad_cat_id": 43719,
        "meta_element_set_no": 999,
        "meta_rev_at_epoch": 38135,
        "meta_bstar": 0.00011728,
        "meta_mean_motion_dot": 8.07e-06,
        "meta_mean_motion_ddot": 0,
        "tle_line1": "1 43719U 18096A   25356.79428166  .00000807  00000+0  11728-3 0  9998",
        "tle_line2": "2 43719  98.0087  59.7226 0000917  52.8265 307.3029 14.78668791381355"
      },
      "geometry": {
        "type": "Point",
        "coordinates": [
          -62.5228549272254,
          80.53334412892502
        ]
      }
    }
  ]
}